{
  "norad_id": 46172,
  "name": "STARLINK-1635",
  "history": [
    {
      "epoch": "2026-03-28T12:10:35.554080Z",
      "apogee_km": 377.5754915038724,
      "perigee_km": 367.5264174148633,
      "latitude_deg": -2.1997593467827703e-05,
      "longitude_deg": 156.94473292528036,
      "height_km": 369.3498749894301,
      "semi_major_axis_km": 6750.687954459368,
      "eccentricity": 0.0007443,
      "inclination_deg": 53.0424,
      "raan_deg": 165.5197,
      "arg_perigee_deg": 35.4077,
      "mean_anomaly_deg": 324.743,
      "mean_motion_rev_day": 15.65239185
    }
  ]
}